HAWK-5A                 
1 52757U 22057AB  26183.71471474  .00019571  00000+0  32722-3 0  9998
2 52757  97.6623 343.5718 0004437  24.8200 335.3265 15.51945485228754
HAWK-6B                 
1 55324U 23011A   26183.59282301  .00004749  00000+0  20540-3 0  9993
2 55324  40.4980 262.2103 0002145 166.4516 193.6351 15.23065766190192
HAWK-6C                 
1 55326U 23011C   26183.59219967  .00004886  00000+0  21113-3 0  9992
2 55326  40.4966 259.0504 0002498 145.2091 214.8882 15.23063656190204
HAWK-6A                 
1 55327U 23011D   26183.59223537  .00004857  00000+0  20989-3 0  9999
2 55327  40.4977 260.6761 0002054 144.3661 215.7285 15.23064542190203
HAWK-7A                 
1 56191U 23054P   26183.76760656  .00006472  00000+0  24302-3 0  9991
2 56191  97.2681  70.7088 0002915  19.8354 340.2999 15.27523274179409
HAWK-7B                 
1 56193U 23054R   26183.63652467  .00006486  00000+0  24357-3 0  9994
2 56193  97.2708  68.8505 0002674  40.2087 319.9350 15.27520585179389
HAWK-7C                 
1 56200U 23054Y   26183.43988529  .00006792  00000+0  25495-3 0  9996
2 56200  97.2684  69.4228 0002416  29.6141 330.5235 15.27518091179353
